FLOCK 4Q-16             
1 58271U 23174R   26203.54650602  .00025149  00000+0  43973-3 0  9990
2 58271  97.3809 292.5089 0006436  54.9524 305.2331 15.50613331151051
FLOCK 4Q-11             
1 58273U 23174T   26204.29126583  .00023522  00000+0  40371-3 0  9993
2 58273  97.3845 293.9186 0005770  46.3793 313.7937 15.51157003151189
FLOCK 4Q-28             
1 58280U 23174AA  26204.05624575  .00036883  00000+0  50840-3 0  9995
2 58280  97.3873 296.4874 0004081  37.4873 322.6666 15.57129896151323
FLOCK 4Q-27             
1 58282U 23174AC  26204.18551071  .00032289  00000+0  44196-3 0  9994
2 58282  97.3801 296.0222 0003236  42.8480 317.3027 15.57347531151357
FLOCK 4Q-7              
1 58318U 23174BQ  26204.20154735  .00034887  00000+0  46951-3 0  9990
2 58318  97.3901 296.9746 0003989   9.0104 351.1222 15.57784720151359
FLOCK 4Q-2              
1 58320U 23174BS  26204.27629141  .00025885  00000+0  44458-3 0  9996
2 58320  97.3838 293.6131 0003990  22.5411 337.6015 15.51128150151190
FLOCK 4Q-9              
1 58322U 23174BU  26204.29019995  .00028196  00000+0  47433-3 0  9994
2 58322  97.3842 293.7472 0004827  21.0939 339.0512 15.51691171151180
FLOCK 4Q-4              
1 58327U 23174BZ  26204.18324418  .00025094  00000+0  44619-3 0  9993
2 58327  97.3821 292.7307 0005093  51.4770 308.6937 15.50146108151136
FLOCK 4Q-13             
1 58328U 23174CA  26204.28160317  .00023205  00000+0  37074-3 0  9990
2 58328  97.3997 296.1933 0005134  28.8459 331.3077 15.53170966151277
FLOCK 4BE-18            
1 60480U 24149N   26204.15165332  .00019129  00000+0  43649-3 0  9998
2 60480  97.3716 288.2836 0005404 123.2959 236.8807 15.42919092107851
FLOCK 4BE-7             
1 60481U 24149P   26204.19109157  .00026956  00000+0  63799-3 0  9990
2 60481  97.3746 287.6020 0004463 129.4646 230.6997 15.41756969107794
FLOCK 4BE-36            
1 60486U 24149U   26204.16869912  .00017889  00000+0  39729-3 0  9995
2 60486  97.3733 289.0528 0005176 131.0142 229.1555 15.43742236107906
FLOCK 4BE-25            
1 60487U 24149V   26204.16685219  .00014702  00000+0  37380-3 0  9994
2 60487  97.3784 287.5820 0004002 124.9681 235.1941 15.39708480107776
FLOCK 4BE-31            
1 60488U 24149W   26204.16408006  .00023010  00000+0  48239-3 0  9999
2 60488  97.3787 290.0167 0004099 131.4518 228.7083 15.45403836107938
FLOCK 4BE-20            
1 60489U 24149X   26204.14779494  .00013056  00000+0  34035-3 0  9998
2 60489  97.3681 286.3508 0005475 131.4314 228.7403 15.38963054107742
FLOCK 4BE-23            
1 60490U 24149Y   26204.14797905  .00014569  00000+0  38495-3 0  9991
2 60490  97.3764 286.7455 0005110 135.2537 224.9122 15.38524373107727
