{"fetched_at":"2026-07-23T17:55:10.095Z","source":"https://celestrak.org/NORAD/elements/gp.php?GROUP=planet&FORMAT=JSON","constellation":"superdove","records":[{"OBJECT_NAME":"FLOCK 4Q-16","OBJECT_ID":"2023-174R","EPOCH":"2026-07-22T13:06:58.120128","CLASSIFICATION_TYPE":"U","MEAN_MOTION":15.50613331,"ECCENTRICITY":0.00064367,"INCLINATION":97.3809,"RA_OF_ASC_NODE":292.5089,"ARG_OF_PERICENTER":54.9524,"MEAN_ANOMALY":305.2331,"EPHEMERIS_TYPE":0,"NORAD_CAT_ID":58271,"ELEMENT_SET_NO":999,"REV_AT_EPOCH":15105,"BSTAR":0.0004397316,"MEAN_MOTION_DOT":0.00025149,"MEAN_MOTION_DDOT":0},{"OBJECT_NAME":"FLOCK 4Q-11","OBJECT_ID":"2023-174T","EPOCH":"2026-07-23T06:59:25.367712","CLASSIFICATION_TYPE":"U","MEAN_MOTION":15.51157003,"ECCENTRICITY":0.00057708,"INCLINATION":97.3845,"RA_OF_ASC_NODE":293.9186,"ARG_OF_PERICENTER":46.3793,"MEAN_ANOMALY":313.7937,"EPHEMERIS_TYPE":0,"NORAD_CAT_ID":58273,"ELEMENT_SET_NO":999,"REV_AT_EPOCH":15118,"BSTAR":0.0004037135,"MEAN_MOTION_DOT":0.00023522,"MEAN_MOTION_DDOT":0},{"OBJECT_NAME":"FLOCK 4Q-28","OBJECT_ID":"2023-174AA","EPOCH":"2026-07-23T01:20:59.632800","CLASSIFICATION_TYPE":"U","MEAN_MOTION":15.57129896,"ECCENTRICITY":0.00040813,"INCLINATION":97.3873,"RA_OF_ASC_NODE":296.4874,"ARG_OF_PERICENTER":37.4873,"MEAN_ANOMALY":322.6666,"EPHEMERIS_TYPE":0,"NORAD_CAT_ID":58280,"ELEMENT_SET_NO":999,"REV_AT_EPOCH":15132,"BSTAR":0.00050839514,"MEAN_MOTION_DOT":0.00036883,"MEAN_MOTION_DDOT":0},{"OBJECT_NAME":"FLOCK 4Q-27","OBJECT_ID":"2023-174AC","EPOCH":"2026-07-23T04:27:08.125344","CLASSIFICATION_TYPE":"U","MEAN_MOTION":15.57347531,"ECCENTRICITY":0.00032368,"INCLINATION":97.3801,"RA_OF_ASC_NODE":296.0222,"ARG_OF_PERICENTER":42.848,"MEAN_ANOMALY":317.3027,"EPHEMERIS_TYPE":0,"NORAD_CAT_ID":58282,"ELEMENT_SET_NO":999,"REV_AT_EPOCH":15135,"BSTAR":0.00044196402,"MEAN_MOTION_DOT":0.00032289,"MEAN_MOTION_DDOT":0},{"OBJECT_NAME":"FLOCK 4Q-7","OBJECT_ID":"2023-174BQ","EPOCH":"2026-07-23T04:50:13.691040","CLASSIFICATION_TYPE":"U","MEAN_MOTION":15.5778472,"ECCENTRICITY":0.00039896,"INCLINATION":97.3901,"RA_OF_ASC_NODE":296.9746,"ARG_OF_PERICENTER":9.0104,"MEAN_ANOMALY":351.1222,"EPHEMERIS_TYPE":0,"NORAD_CAT_ID":58318,"ELEMENT_SET_NO":999,"REV_AT_EPOCH":15135,"BSTAR":0.00046951488,"MEAN_MOTION_DOT":0.00034887,"MEAN_MOTION_DDOT":0},{"OBJECT_NAME":"FLOCK 4Q-2","OBJECT_ID":"2023-174BS","EPOCH":"2026-07-23T06:37:51.577824","CLASSIFICATION_TYPE":"U","MEAN_MOTION":15.5112815,"ECCENTRICITY":0.00039906,"INCLINATION":97.3838,"RA_OF_ASC_NODE":293.6131,"ARG_OF_PERICENTER":22.5411,"MEAN_ANOMALY":337.6015,"EPHEMERIS_TYPE":0,"NORAD_CAT_ID":58320,"ELEMENT_SET_NO":999,"REV_AT_EPOCH":15119,"BSTAR":0.0004445804,"MEAN_MOTION_DOT":0.00025885,"MEAN_MOTION_DDOT":0},{"OBJECT_NAME":"FLOCK 4Q-9","OBJECT_ID":"2023-174BU","EPOCH":"2026-07-23T06:57:53.275680","CLASSIFICATION_TYPE":"U","MEAN_MOTION":15.51691171,"ECCENTRICITY":0.00048271,"INCLINATION":97.3842,"RA_OF_ASC_NODE":293.7472,"ARG_OF_PERICENTER":21.0939,"MEAN_ANOMALY":339.0512,"EPHEMERIS_TYPE":0,"NORAD_CAT_ID":58322,"ELEMENT_SET_NO":999,"REV_AT_EPOCH":15118,"BSTAR":0.00047433126,"MEAN_MOTION_DOT":0.00028196,"MEAN_MOTION_DDOT":0},{"OBJECT_NAME":"FLOCK 4Q-4","OBJECT_ID":"2023-174BZ","EPOCH":"2026-07-23T04:23:52.297152","CLASSIFICATION_TYPE":"U","MEAN_MOTION":15.50146108,"ECCENTRICITY":0.00050936,"INCLINATION":97.3821,"RA_OF_ASC_NODE":292.7307,"ARG_OF_PERICENTER":51.477,"MEAN_ANOMALY":308.6937,"EPHEMERIS_TYPE":0,"NORAD_CAT_ID":58327,"ELEMENT_SET_NO":999,"REV_AT_EPOCH":15113,"BSTAR":0.00044619446,"MEAN_MOTION_DOT":0.00025094,"MEAN_MOTION_DDOT":0},{"OBJECT_NAME":"FLOCK 4Q-13","OBJECT_ID":"2023-174CA","EPOCH":"2026-07-23T06:45:30.513888","CLASSIFICATION_TYPE":"U","MEAN_MOTION":15.53170966,"ECCENTRICITY":0.00051348,"INCLINATION":97.3997,"RA_OF_ASC_NODE":296.1933,"ARG_OF_PERICENTER":28.8459,"MEAN_ANOMALY":331.3077,"EPHEMERIS_TYPE":0,"NORAD_CAT_ID":58328,"ELEMENT_SET_NO":999,"REV_AT_EPOCH":15127,"BSTAR":0.00037073707,"MEAN_MOTION_DOT":0.00023205,"MEAN_MOTION_DDOT":0},{"OBJECT_NAME":"FLOCK 4BE-18","OBJECT_ID":"2024-149N","EPOCH":"2026-07-23T03:38:22.846848","CLASSIFICATION_TYPE":"U","MEAN_MOTION":15.42919092,"ECCENTRICITY":0.00054047,"INCLINATION":97.3716,"RA_OF_ASC_NODE":288.2836,"ARG_OF_PERICENTER":123.2959,"MEAN_ANOMALY":236.8807,"EPHEMERIS_TYPE":0,"NORAD_CAT_ID":60480,"ELEMENT_SET_NO":999,"REV_AT_EPOCH":10785,"BSTAR":0.00043649414,"MEAN_MOTION_DOT":0.00019129,"MEAN_MOTION_DDOT":0},{"OBJECT_NAME":"FLOCK 4BE-7","OBJECT_ID":"2024-149P","EPOCH":"2026-07-23T04:35:10.311648","CLASSIFICATION_TYPE":"U","MEAN_MOTION":15.41756969,"ECCENTRICITY":0.00044636,"INCLINATION":97.3746,"RA_OF_ASC_NODE":287.602,"ARG_OF_PERICENTER":129.4646,"MEAN_ANOMALY":230.6997,"EPHEMERIS_TYPE":0,"NORAD_CAT_ID":60481,"ELEMENT_SET_NO":999,"REV_AT_EPOCH":10779,"BSTAR":0.00063798903,"MEAN_MOTION_DOT":0.00026956,"MEAN_MOTION_DDOT":0},{"OBJECT_NAME":"FLOCK 4BE-36","OBJECT_ID":"2024-149U","EPOCH":"2026-07-23T04:02:55.603968","CLASSIFICATION_TYPE":"U","MEAN_MOTION":15.43742236,"ECCENTRICITY":0.00051768,"INCLINATION":97.3733,"RA_OF_ASC_NODE":289.0528,"ARG_OF_PERICENTER":131.0142,"MEAN_ANOMALY":229.1555,"EPHEMERIS_TYPE":0,"NORAD_CAT_ID":60486,"ELEMENT_SET_NO":999,"REV_AT_EPOCH":10790,"BSTAR":0.00039729158,"MEAN_MOTION_DOT":0.00017889,"MEAN_MOTION_DDOT":0},{"OBJECT_NAME":"FLOCK 4BE-25","OBJECT_ID":"2024-149V","EPOCH":"2026-07-23T04:00:16.029216","CLASSIFICATION_TYPE":"U","MEAN_MOTION":15.3970848,"ECCENTRICITY":0.00040029,"INCLINATION":97.3784,"RA_OF_ASC_NODE":287.582,"ARG_OF_PERICENTER":124.9681,"MEAN_ANOMALY":235.1941,"EPHEMERIS_TYPE":0,"NORAD_CAT_ID":60487,"ELEMENT_SET_NO":999,"REV_AT_EPOCH":10777,"BSTAR":0.00037380252,"MEAN_MOTION_DOT":0.00014702,"MEAN_MOTION_DDOT":0},{"OBJECT_NAME":"FLOCK 4BE-31","OBJECT_ID":"2024-149W","EPOCH":"2026-07-23T03:56:16.517184","CLASSIFICATION_TYPE":"U","MEAN_MOTION":15.45403836,"ECCENTRICITY":0.00040999,"INCLINATION":97.3787,"RA_OF_ASC_NODE":290.0167,"ARG_OF_PERICENTER":131.4518,"MEAN_ANOMALY":228.7083,"EPHEMERIS_TYPE":0,"NORAD_CAT_ID":60488,"ELEMENT_SET_NO":999,"REV_AT_EPOCH":10793,"BSTAR":0.00048239033,"MEAN_MOTION_DOT":0.0002301,"MEAN_MOTION_DDOT":0},{"OBJECT_NAME":"FLOCK 4BE-20","OBJECT_ID":"2024-149X","EPOCH":"2026-07-23T03:32:49.482816","CLASSIFICATION_TYPE":"U","MEAN_MOTION":15.38963054,"ECCENTRICITY":0.00054757,"INCLINATION":97.3681,"RA_OF_ASC_NODE":286.3508,"ARG_OF_PERICENTER":131.4314,"MEAN_ANOMALY":228.7403,"EPHEMERIS_TYPE":0,"NORAD_CAT_ID":60489,"ELEMENT_SET_NO":999,"REV_AT_EPOCH":10774,"BSTAR":0.00034035265,"MEAN_MOTION_DOT":0.00013056,"MEAN_MOTION_DDOT":0},{"OBJECT_NAME":"FLOCK 4BE-23","OBJECT_ID":"2024-149Y","EPOCH":"2026-07-23T03:33:05.389920","CLASSIFICATION_TYPE":"U","MEAN_MOTION":15.38524373,"ECCENTRICITY":0.00051103,"INCLINATION":97.3764,"RA_OF_ASC_NODE":286.7455,"ARG_OF_PERICENTER":135.2537,"MEAN_ANOMALY":224.9122,"EPHEMERIS_TYPE":0,"NORAD_CAT_ID":60490,"ELEMENT_SET_NO":999,"REV_AT_EPOCH":10772,"BSTAR":0.00038494802,"MEAN_MOTION_DOT":0.00014569,"MEAN_MOTION_DDOT":0}]}
